[{"OBJECT_NAME":"STARLINK-2418","OBJECT_ID":"2021-027F","EPOCH":"2026-03-09T12:42:20.961792","MEAN_MOTION":15.06398346,"ECCENTRICITY":0.00011676,"INCLINATION":53.0551,"RA_OF_ASC_NODE":152.3405,"ARG_OF_PERICENTER":85.6837,"MEAN_ANOMALY":274.4285,"EPHEMERIS_TYPE":0,"CLASSIFICATION_TYPE":"U","NORAD_CAT_ID":48097,"ELEMENT_SET_NO":999,"REV_AT_EPOCH":27267,"BSTAR":-8.5535251e-5,"MEAN_MOTION_DOT":-1.555e-5,"MEAN_MOTION_DDOT":0},{"OBJECT_NAME":"CZ-6A DEB","OBJECT_ID":"2024-140FD","EPOCH":"2026-03-09T14:27:44.906112","MEAN_MOTION":14.99694865,"ECCENTRICITY":0.0039811,"INCLINATION":89.0027,"RA_OF_ASC_NODE":280.8171,"ARG_OF_PERICENTER":188.2594,"MEAN_ANOMALY":171.7991,"EPHEMERIS_TYPE":0,"CLASSIFICATION_TYPE":"U","NORAD_CAT_ID":60778,"ELEMENT_SET_NO":999,"REV_AT_EPOCH":8450,"BSTAR":0.0048584,"MEAN_MOTION_DOT":0.00061368,"MEAN_MOTION_DDOT":0}]
